LANDSAT 9               
1 49260U 21088A   23323.76794563  .00000438  00000+0  10732-3 0  9990
2 49260  98.2143  31.6700 0001233  90.2161 269.9179 14.57095403114057
